STARLINK-32434          
1 61913U 24207B   26010.92167682  .00023308  00000+0  85354-3 0  9998
2 61913  43.0001 248.3023 0001332 275.6965  84.3735 15.27591363 65880
STARLINK-32460          
1 61914U 24207C   26010.93180714  .00021876  00000+0  80196-3 0  9998
2 61914  42.9974 247.5072 0000843 278.1367  81.9389 15.27586725 65898
STARLINK-32559          
1 61915U 24207D   26010.94593794  .00032186  00000+0  11734-2 0  9993
2 61915  43.0003 247.6130 0000967 268.0489  92.0252 15.27598010 65892
STARLINK-32541          
1 61916U 24207E   26010.39552697  .00019556  00000+0  71836-3 0  9996
2 61916  43.0005 254.6857 0001653 263.4098  96.6565 15.27576522 65764
STARLINK-32544          
1 61917U 24207F   26010.95364892  .00019971  00000+0  73292-3 0  9996
2 61917  43.0031 247.6698 0000585 268.0662  92.0122 15.27596934 65892
STARLINK-32555          
1 61918U 24207G   26010.93018034  .00049849  00000+0  18063-2 0  9990
2 61918  42.9985 251.8172 0001324 239.2962 120.7759 15.27624448 65840
STARLINK-32547          
1 61919U 24207H   26010.01767990  .00016993  00000+0  62590-3 0  9991
2 61919  42.9984 252.6852 0001315 264.8889  95.1813 15.27565031 65743
STARLINK-32616          
1 61920U 24207J   26010.70624094  .00022286  00000+0  81688-3 0  9997
2 61920  43.0013 249.2549 0001250 264.0919  95.9790 15.27581523 65857
STARLINK-32605          
1 61921U 24207K   26010.94979480  .00029010  00000+0  10592-2 0  9993
2 61921  42.9978 247.6400 0001800 269.0078  91.0567 15.27591011 65892
STARLINK-32579          
1 61922U 24207L   26010.71860832  .00020602  00000+0  75566-3 0  9990
2 61922  43.0005 252.8101 0000095   4.5510 355.5342 15.27599045 65816
STARLINK-32537          
1 61923U 24207M   26010.93275153  .00031576  00000+0  11522-2 0  9994
2 61923  43.0022 251.8364 0001938 282.9037  77.1598 15.27575079 65843
STARLINK-32564          
1 61924U 24207N   26010.92632922  .00023313  00000+0  85383-3 0  9992
2 61924  43.0008 251.7896 0001242 262.5447  97.5263 15.27588001 65848
STARLINK-32536          
1 61925U 24207P   26010.93660954  .00026885  00000+0  98258-3 0  9992
2 61925  42.9986 251.8634 0000905 263.3211  96.7537 15.27591751 65847
STARLINK-32624          
1 61926U 24207Q   26010.92666647  .00025267  00000+0  92426-3 0  9991
2 61926  42.9981 247.4680 0000868 261.2973  98.7780 15.27590804 65890
STARLINK-32622          
1 61927U 24207R   26010.93437446  .00019687  00000+0  72283-3 0  9994
2 61927  42.9968 247.5242 0000983 272.4678  87.6061 15.27588082 65899
STARLINK-32620          
1 61928U 24207S   26010.70238201  .00017702  00000+0  65095-3 0  9997
2 61928  42.9968 249.2242 0000809  56.3960 303.6969 15.27595880 65857
