[{"OBJECT_NAME":"STARLINK-32434","OBJECT_ID":"2024-207B","EPOCH":"2026-01-10T22:07:12.877248","MEAN_MOTION":15.27591363,"ECCENTRICITY":0.00013328,"INCLINATION":43.0001,"RA_OF_ASC_NODE":248.3023,"ARG_OF_PERICENTER":275.6965,"MEAN_ANOMALY":84.3735,"EPHEMERIS_TYPE":0,"CLASSIFICATION_TYPE":"U","NORAD_CAT_ID":61913,"ELEMENT_SET_NO":999,"REV_AT_EPOCH":6588,"BSTAR":0.00085354121,"MEAN_MOTION_DOT":0.00023308,"MEAN_MOTION_DDOT":0},{"OBJECT_NAME":"STARLINK-32460","OBJECT_ID":"2024-207C","EPOCH":"2026-01-10T22:21:48.136896","MEAN_MOTION":15.27586725,"ECCENTRICITY":8.434e-5,"INCLINATION":42.9974,"RA_OF_ASC_NODE":247.5072,"ARG_OF_PERICENTER":278.1367,"MEAN_ANOMALY":81.9389,"EPHEMERIS_TYPE":0,"CLASSIFICATION_TYPE":"U","NORAD_CAT_ID":61914,"ELEMENT_SET_NO":999,"REV_AT_EPOCH":6589,"BSTAR":0.00080196418,"MEAN_MOTION_DOT":0.00021876,"MEAN_MOTION_DDOT":0},{"OBJECT_NAME":"STARLINK-32559","OBJECT_ID":"2024-207D","EPOCH":"2026-01-10T22:42:09.038016","MEAN_MOTION":15.2759801,"ECCENTRICITY":9.673e-5,"INCLINATION":43.0003,"RA_OF_ASC_NODE":247.613,"ARG_OF_PERICENTER":268.0489,"MEAN_ANOMALY":92.0252,"EPHEMERIS_TYPE":0,"CLASSIFICATION_TYPE":"U","NORAD_CAT_ID":61915,"ELEMENT_SET_NO":999,"REV_AT_EPOCH":6589,"BSTAR":0.0011734101,"MEAN_MOTION_DOT":0.00032186,"MEAN_MOTION_DDOT":0},{"OBJECT_NAME":"STARLINK-32541","OBJECT_ID":"2024-207E","EPOCH":"2026-01-10T09:29:33.530208","MEAN_MOTION":15.27576522,"ECCENTRICITY":0.00016538,"INCLINATION":43.0005,"RA_OF_ASC_NODE":254.6857,"ARG_OF_PERICENTER":263.4098,"MEAN_ANOMALY":96.6565,"EPHEMERIS_TYPE":0,"CLASSIFICATION_TYPE":"U","NORAD_CAT_ID":61916,"ELEMENT_SET_NO":999,"REV_AT_EPOCH":6576,"BSTAR":0.00071836096,"MEAN_MOTION_DOT":0.00019556,"MEAN_MOTION_DDOT":0},{"OBJECT_NAME":"STARLINK-32544","OBJECT_ID":"2024-207F","EPOCH":"2026-01-10T22:53:15.266688","MEAN_MOTION":15.27596934,"ECCENTRICITY":5.855e-5,"INCLINATION":43.0031,"RA_OF_ASC_NODE":247.6698,"ARG_OF_PERICENTER":268.0662,"MEAN_ANOMALY":92.0122,"EPHEMERIS_TYPE":0,"CLASSIFICATION_TYPE":"U","NORAD_CAT_ID":61917,"ELEMENT_SET_NO":999,"REV_AT_EPOCH":6589,"BSTAR":0.00073292128,"MEAN_MOTION_DOT":0.00019971,"MEAN_MOTION_DDOT":0},{"OBJECT_NAME":"STARLINK-32555","OBJECT_ID":"2024-207G","EPOCH":"2026-01-10T22:19:27.581376","MEAN_MOTION":15.27624448,"ECCENTRICITY":0.0001324,"INCLINATION":42.9985,"RA_OF_ASC_NODE":251.8172,"ARG_OF_PERICENTER":239.2962,"MEAN_ANOMALY":120.7759,"EPHEMERIS_TYPE":0,"CLASSIFICATION_TYPE":"U","NORAD_CAT_ID":61918,"ELEMENT_SET_NO":999,"REV_AT_EPOCH":6584,"BSTAR":0.0018063274,"MEAN_MOTION_DOT":0.00049849,"MEAN_MOTION_DDOT":0},{"OBJECT_NAME":"STARLINK-32547","OBJECT_ID":"2024-207H","EPOCH":"2026-01-10T00:25:27.543360","MEAN_MOTION":15.27565031,"ECCENTRICITY":0.00013151,"INCLINATION":42.9984,"RA_OF_ASC_NODE":252.6852,"ARG_OF_PERICENTER":264.8889,"MEAN_ANOMALY":95.1813,"EPHEMERIS_TYPE":0,"CLASSIFICATION_TYPE":"U","NORAD_CAT_ID":61919,"ELEMENT_SET_NO":999,"REV_AT_EPOCH":6574,"BSTAR":0.00062590318,"MEAN_MOTION_DOT":0.00016993,"MEAN_MOTION_DDOT":0},{"OBJECT_NAME":"STARLINK-32616","OBJECT_ID":"2024-207J","EPOCH":"2026-01-10T16:56:59.217216","MEAN_MOTION":15.27581523,"ECCENTRICITY":0.000125,"INCLINATION":43.0013,"RA_OF_ASC_NODE":249.2549,"ARG_OF_PERICENTER":264.0919,"MEAN_ANOMALY":95.979,"EPHEMERIS_TYPE":0,"CLASSIFICATION_TYPE":"U","NORAD_CAT_ID":61920,"ELEMENT_SET_NO":999,"REV_AT_EPOCH":6585,"BSTAR":0.00081687769,"MEAN_MOTION_DOT":0.00022286,"MEAN_MOTION_DDOT":0},{"OBJECT_NAME":"STARLINK-32605","OBJECT_ID":"2024-207K","EPOCH":"2026-01-10T22:47:42.270720","MEAN_MOTION":15.27591011,"ECCENTRICITY":0.00018005,"INCLINATION":42.9978,"RA_OF_ASC_NODE":247.64,"ARG_OF_PERICENTER":269.0078,"MEAN_ANOMALY":91.0567,"EPHEMERIS_TYPE":0,"CLASSIFICATION_TYPE":"U","NORAD_CAT_ID":61921,"ELEMENT_SET_NO":999,"REV_AT_EPOCH":6589,"BSTAR":0.0010591943,"MEAN_MOTION_DOT":0.0002901,"MEAN_MOTION_DDOT":0},{"OBJECT_NAME":"STARLINK-32579","OBJECT_ID":"2024-207L","EPOCH":"2026-01-10T17:14:47.758848","MEAN_MOTION":15.27599045,"ECCENTRICITY":9.55e-6,"INCLINATION":43.0005,"RA_OF_ASC_NODE":252.8101,"ARG_OF_PERICENTER":4.551,"MEAN_ANOMALY":355.5342,"EPHEMERIS_TYPE":0,"CLASSIFICATION_TYPE":"U","NORAD_CAT_ID":61922,"ELEMENT_SET_NO":999,"REV_AT_EPOCH":6581,"BSTAR":0.00075566222,"MEAN_MOTION_DOT":0.00020602,"MEAN_MOTION_DDOT":0},{"OBJECT_NAME":"STARLINK-32537","OBJECT_ID":"2024-207M","EPOCH":"2026-01-10T22:23:09.732192","MEAN_MOTION":15.27575079,"ECCENTRICITY":0.00019386,"INCLINATION":43.0022,"RA_OF_ASC_NODE":251.8364,"ARG_OF_PERICENTER":282.9037,"MEAN_ANOMALY":77.1598,"EPHEMERIS_TYPE":0,"CLASSIFICATION_TYPE":"U","NORAD_CAT_ID":61923,"ELEMENT_SET_NO":999,"REV_AT_EPOCH":6584,"BSTAR":0.0011522319,"MEAN_MOTION_DOT":0.00031576,"MEAN_MOTION_DDOT":0},{"OBJECT_NAME":"STARLINK-32564","OBJECT_ID":"2024-207N","EPOCH":"2026-01-10T22:13:54.844608","MEAN_MOTION":15.27588001,"ECCENTRICITY":0.00012425,"INCLINATION":43.0008,"RA_OF_ASC_NODE":251.7896,"ARG_OF_PERICENTER":262.5447,"MEAN_ANOMALY":97.5263,"EPHEMERIS_TYPE":0,"CLASSIFICATION_TYPE":"U","NORAD_CAT_ID":61924,"ELEMENT_SET_NO":999,"REV_AT_EPOCH":6584,"BSTAR":0.00085382825,"MEAN_MOTION_DOT":0.00023313,"MEAN_MOTION_DDOT":0},{"OBJECT_NAME":"STARLINK-32536","OBJECT_ID":"2024-207P","EPOCH":"2026-01-10T22:28:43.064256","MEAN_MOTION":15.27591751,"ECCENTRICITY":9.057e-5,"INCLINATION":42.9986,"RA_OF_ASC_NODE":251.8634,"ARG_OF_PERICENTER":263.3211,"MEAN_ANOMALY":96.7537,"EPHEMERIS_TYPE":0,"CLASSIFICATION_TYPE":"U","NORAD_CAT_ID":61925,"ELEMENT_SET_NO":999,"REV_AT_EPOCH":6584,"BSTAR":0.0009825832,"MEAN_MOTION_DOT":0.00026885,"MEAN_MOTION_DDOT":0},{"OBJECT_NAME":"STARLINK-32624","OBJECT_ID":"2024-207Q","EPOCH":"2026-01-10T22:14:23.983008","MEAN_MOTION":15.27590804,"ECCENTRICITY":8.689e-5,"INCLINATION":42.9981,"RA_OF_ASC_NODE":247.468,"ARG_OF_PERICENTER":261.2973,"MEAN_ANOMALY":98.778,"EPHEMERIS_TYPE":0,"CLASSIFICATION_TYPE":"U","NORAD_CAT_ID":61926,"ELEMENT_SET_NO":999,"REV_AT_EPOCH":6589,"BSTAR":0.00092425959,"MEAN_MOTION_DOT":0.00025267,"MEAN_MOTION_DDOT":0},{"OBJECT_NAME":"STARLINK-32622","OBJECT_ID":"2024-207R","EPOCH":"2026-01-10T22:25:29.953344","MEAN_MOTION":15.27588082,"ECCENTRICITY":9.832e-5,"INCLINATION":42.9968,"RA_OF_ASC_NODE":247.5242,"ARG_OF_PERICENTER":272.4678,"MEAN_ANOMALY":87.6061,"EPHEMERIS_TYPE":0,"CLASSIFICATION_TYPE":"U","NORAD_CAT_ID":61927,"ELEMENT_SET_NO":999,"REV_AT_EPOCH":6589,"BSTAR":0.00072283211,"MEAN_MOTION_DOT":0.00019687,"MEAN_MOTION_DDOT":0},{"OBJECT_NAME":"STARLINK-32620","OBJECT_ID":"2024-207S","EPOCH":"2026-01-10T16:51:25.805664","MEAN_MOTION":15.2759588,"ECCENTRICITY":8.096e-5,"INCLINATION":42.9968,"RA_OF_ASC_NODE":249.2242,"ARG_OF_PERICENTER":56.396,"MEAN_ANOMALY":303.6969,"EPHEMERIS_TYPE":0,"CLASSIFICATION_TYPE":"U","NORAD_CAT_ID":61928,"ELEMENT_SET_NO":999,"REV_AT_EPOCH":6585,"BSTAR":0.00065094912,"MEAN_MOTION_DOT":0.00017702,"MEAN_MOTION_DDOT":0}]
